norad_id,name,regime,epoch,line1,line2,inclination,eccentricity,mean_motion,raan,arg_pericenter,mean_anomaly
43015,MIRATA,LEO,20042.66597311,1 43015U 17073C   20042.66597311 +.00000834 +00000-0 +69163-4 0 0001\,2 43015 097.7229 319.6933 0255419 102.0128 260.9833 14.7939655412047,97.7229,0.0255419,14.79396554,319.6933,102.0128,260.9833
43015,MIRATA,LEO,20043.34234237,1 43015U 17073C   20043.34234237  .00000745  00000-0  62336-4 0  6940\,2 43015  97.7228 320.3439 0255439  99.8192 263.1962 14.79397119120575,97.7228,0.0255439,14.79397119,320.3439,99.8192,263.1962
43015,MIRATA,LEO,20043.54525260,1 43015U 17073C   20043.54525260 +.00000777 +00000-0 +64782-4 0 0001\,2 43015 097.7228 320.5391 0255443 099.1623 263.8580 14.7939766912060,97.7228,0.0255443,14.79397669,320.5391,99.1623,263.858
43015,MIRATA,LEO,20043.81579970,1 43015U 17073C   20043.81579970 +.00000753 +00000-0 +62947-4 0 0001\,2 43015 097.7228 320.7994 0255445 098.2835 264.7427 14.7939799412064,97.7228,0.0255445,14.79397994,320.7994,98.2835,264.7427
43015,MIRATA,LEO,20044.49216671,1 43015U 17073C   20044.49216671  .00000740  00000-0  62014-4 0  6958\,2 43015  97.7228 321.4500 0255451  96.0890 266.9491 14.79398891120749,97.7228,0.0255451,14.79398891,321.45,96.089,266.9491
43015,MIRATA,LEO,20044.55980323,1 43015U 17073C   20044.55980323 +.00000757 +00000-0 +63321-4 0 0001\,2 43015 097.7228 321.5150 0255450 095.8695 267.1695 14.7939911812075,97.7228,0.025545,14.79399118,321.515,95.8695,267.1695
43015,MIRATA,LEO,20044.89798620,1 43015U 17073C   20044.89798620 +.00000731 +00000-0 +61327-4 0 0001\,2 43015 097.7228 321.8403 0255457 094.7728 268.2703 14.7939948512080,97.7228,0.0255457,14.79399485,321.8403,94.7728,268.2703
43015,MIRATA,LEO,20045.50671454,1 43015U 17073C   20045.50671454 +.00000734 +00000-0 +61548-4 0 0001\,2 43015 097.7227 322.4259 0255461 092.7994 270.2484 14.7940045712089,97.7227,0.0255461,14.79400457,322.4259,92.7994,270.2484
43015,MIRATA,LEO,20045.77726015,1 43015U 17073C   20045.77726015  .00000728  00000-0  61080-4 0  6967\,2 43015  97.7227 322.6861 0255459  91.9216 271.1271 14.79400868120938,97.7227,0.0255459,14.79400868,322.6861,91.9216,271.1271
43015,MIRATA,LEO,20045.84489655,1 43015U 17073C   20045.84489655 +.00000720 +00000-0 +60463-4 0 0001\,2 43015 097.7227 322.7512 0255460 091.7023 271.3464 14.7940091712094,97.7227,0.025546,14.79400917,322.7512,91.7023,271.3464
43015,MIRATA,LEO,20046.52125952,1 43015U 17073C   20046.52125952 +.00000748 +00000-0 +62627-4 0 0001\,2 43015 097.7227 323.4018 0255461 089.5069 273.5408 14.7940212612104,97.7227,0.0255461,14.79402126,323.4018,89.5069,273.5408
43015,MIRATA,LEO,20046.79180433,1 43015U 17073C   20046.79180433  .00000741  00000-0  62032-4 0  6972\,2 43015  97.7227 323.6621 0255459  88.6291 274.4169 14.79402534121080,97.7227,0.0255459,14.79402534,323.6621,88.6291,274.4169
43015,MIRATA,LEO,20046.85944049,1 43015U 17073C   20046.85944049 +.00000740 +00000-0 +61971-4 0 0001\,2 43015 097.7227 323.7271 0255461 088.4099 274.6355 14.7940264012109,97.7227,0.0255461,14.7940264,323.7271,88.4099,274.6355
43015,MIRATA,LEO,20047.33289337,1 43015U 17073C   20047.33289337 +.00000787 +00000-0 +65589-4 0 0001\,2 43015 097.7227 324.1826 0255461 086.8745 276.1662 14.7940361412116,97.7227,0.0255461,14.79403614,324.1826,86.8745,276.1662
43015,MIRATA,LEO,20047.73870962,1 43015U 17073C   20047.73870962 +.00000777 +00000-0 +64791-4 0 0001\,2 43015 097.7227 324.5729 0255454 085.5580 277.4767 14.7940418312122,97.7227,0.0255454,14.79404183,324.5729,85.558,277.4767
43015,MIRATA,LEO,20048.27979727,1 43015U 17073C   20048.27979727  .00000826  00000-0  68552-4 0  6987\,2 43015  97.7227 325.0934 0255450  83.8044 279.2202 14.79405236121305,97.7227,0.025545,14.79405236,325.0934,83.8044,279.2202
43015,MIRATA,LEO,20048.41506900,1 43015U 17073C   20048.41506900 +.00000841 +00000-0 +69695-4 0 0001\,2 43015 097.7227 325.2236 0255448 083.3656 279.6561 14.7940551412132,97.7227,0.0255448,14.79405514,325.2236,83.3656,279.6561
43015,MIRATA,LEO,20048.68561227,1 43015U 17073C   20048.68561227 +.00000857 +00000-0 +70919-4 0 0001\,2 43015 097.7227 325.4838 0255442 082.4882 280.5269 14.7940605112136,97.7227,0.0255442,14.79406051,325.4838,82.4882,280.5269
43015,MIRATA,LEO,20049.42960536,1 43015U 17073C   20049.42960536  .00000946  00000-0  77794-4 0  6995\,2 43015  97.7226 326.1995 0255440  80.0764 282.9176 14.79407684121478,97.7226,0.025544,14.79407684,326.1995,80.0764,282.9176
43015,MIRATA,LEO,20049.83541882,1 43015U 17073C   20049.83541882 +.00001008 +00000-0 +82536-4 0 0001\,2 43015 097.7226 326.5898 0255436 078.7592 284.2211 14.7940879212153,97.7226,0.0255436,14.79408792,326.5898,78.7592,284.2211
43015,MIRATA,LEO,20050.44413795,1 43015U 17073C   20050.44413795  .00001240  00000-0  10031-3 0  7000\,2 43015  97.7226 327.1753 0255426  76.7861 286.1709 14.79411211121621,97.7226,0.0255426,14.79411211,327.1753,76.7861,286.1709
43015,MIRATA,LEO,20050.78231425,1 43015U 17073C   20050.78231425 +.00001311 +00000-0 +10574-3 0 0001\,2 43015 097.7227 327.5007 0255422 075.6895 287.2531 14.7941247412167,97.7227,0.0255422,14.79412474,327.5007,75.6895,287.2531
43015,MIRATA,LEO,20051.45866721,1 43015U 17073C   20051.45866721 +.00001240 +00000-0 +10035-3 0 0001\,2 43015 097.7227 328.1513 0255411 073.4966 289.4141 14.7941336812177,97.7227,0.0255411,14.79413368,328.1513,73.4966,289.4141
43015,MIRATA,LEO,20051.72920760,1 43015U 17073C   20051.72920760  .00001273  00000-0  10282-3 0  7012\,2 43015  97.7227 328.4116 0255405  72.6182 290.2787 14.79414212121814,97.7227,0.0255405,14.79414212,328.4116,72.6182,290.2787
43015,MIRATA,LEO,20051.79684270,1 43015U 17073C   20051.79684270 +.00001266 +00000-0 +10230-3 0 0001\,2 43015 097.7227 328.4767 0255405 072.3984 290.4949 14.7941433212182,97.7227,0.0255405,14.79414332,328.4767,72.3984,290.4949
43015,MIRATA,LEO,20052.54082761,1 43015U 17073C   20052.54082761 +.00001277 +00000-0 +10315-3 0 0001\,2 43015 097.7227 329.1924 0255387 069.9864 292.8650 14.7941613412193,97.7227,0.0255387,14.79416134,329.1924,69.9864,292.865
43015,MIRATA,LEO,20052.74373239,1 43015U 17073C   20052.74373239  .00001237  00000-0  10014-3 0  7022\,2 43015  97.7227 329.3875 0255386  69.3290 293.5101 14.79416402121962,97.7227,0.0255386,14.79416402,329.3875,69.329,293.5101
43015,MIRATA,LEO,20052.81136753,1 43015U 17073C   20052.81136753 +.00001185 +00000-0 +96152-4 0 0001\,2 43015 097.7228 329.4526 0255389 069.1084 293.7266 14.7941620312197,97.7228,0.0255389,14.79416203,329.4526,69.1084,293.7266
43015,MIRATA,LEO,20053.42008034,1 43015U 17073C   20053.42008034 +.00001314 +00000-0 +10602-3 0 0001\,2 43015 097.7228 330.0381 0255373 067.1358 295.6600 14.7941842212206,97.7228,0.0255373,14.79418422,330.0381,67.1358,295.66
43015,MIRATA,LEO,20053.82588857,1 43015U 17073C   20053.82588857  .00001249  00000-0  10101-3 0  7037\,2 43015  97.7228 330.4285 0255362  65.8189 296.9489 14.79419051122121,97.7228,0.0255362,14.79419051,330.4285,65.8189,296.9489
43015,MIRATA,LEO,20054.43459974,1 43015U 17073C   20054.43459974 +.00001280 +00000-0 +10341-3 0 0001\,2 43015 097.7228 331.0140 0255340 063.8465 298.8770 14.7942070512221,97.7228,0.025534,14.79420705,331.014,63.8465,298.877
43015,MIRATA,LEO,20054.77277203,1 43015U 17073C   20054.77277203 +.00001251 +00000-0 +10124-3 0 0001\,2 43015 097.7228 331.3393 0255326 062.7486 299.9489 14.7942144912226,97.7228,0.0255326,14.79421449,331.3393,62.7486,299.9489
43015,MIRATA,LEO,20055.24621261,1 43015U 17073C   20055.24621261 +.00001271 +00000-0 +10279-3 0 0001\,2 43015 097.7227 331.7947 0255310 061.2145 301.4451 14.7942279012233,97.7227,0.025531,14.7942279,331.7947,61.2145,301.4451
43015,MIRATA,LEO,20055.44911538,1 43015U 17073C   20055.44911538  .00001284  00000-0  10376-3 0  7047\,2 43015  97.7227 331.9898 0255303  60.5562 302.0866 14.79423403122368,97.7227,0.0255303,14.79423403,331.9898,60.5562,302.0866
43015,MIRATA,LEO,20055.78728655,1 43015U 17073C   20055.78728655 +.00001255 +00000-0 +10154-3 0 0001\,2 43015 097.7227 332.3152 0255287 059.4596 303.1545 14.7942415512241,97.7227,0.0255287,14.79424155,332.3152,59.4596,303.1545
43015,MIRATA,LEO,20056.46362785,1 43015U 17073C   20056.46362785  .00001246  00000-0  10088-3 0  7053\,2 43015  97.7226 332.9658 0255265  57.2688 305.2854 14.79425829122514,97.7226,0.0255265,14.79425829,332.9658,57.2688,305.2854
43015,MIRATA,LEO,20057.41050366,1 43015U 17073C   20057.41050366 +.00001170 +00000-0 +95036-4 0 0001\,2 43015 097.7225 333.8766 0255226 054.1975 308.2668 14.7942767012265,97.7225,0.0255226,14.7942767,333.8766,54.1975,308.2668
43015,MIRATA,LEO,20058.83081220,1 43015U 17073C   20058.83081220  .00001061  00000-0  86753-4 0  7067\,2 43015  97.7225 335.2430 0255148  49.5871 312.7300 14.79430429122864,97.7225,0.0255148,14.79430429,335.243,49.5871,312.73
43015,MIRATA,LEO,20059.50714769,1 43015U 17073C   20059.50714769 +.00001220 +00000-0 +98985-4 0 0001\,2 43015 097.7224 335.8936 0255112 047.3908 314.8514 14.7943280112296,97.7224,0.0255112,14.79432801,335.8936,47.3908,314.8514
43015,MIRATA,LEO,20059.77768146,1 43015U 17073C   20059.77768146 +.00001227 +00000-0 +99498-4 0 0001\,2 43015 097.7224 336.1539 0255103 046.5108 315.7005 14.7943350512300,97.7224,0.0255103,14.79433505,336.1539,46.5108,315.7005
43015,MIRATA,LEO,20059.84531491,1 43015U 17073C   20059.84531491 +.00001219 +00000-0 +98895-4 0 0001\,2 43015 097.7224 336.2190 0255100 046.2917 315.9119 14.7943361212301,97.7224,0.02551,14.79433612,336.219,46.2917,315.9119
43015,MIRATA,LEO,20060.45401515,1 43015U 17073C   20060.45401515  .00001335  00000-0  10779-3 0  7070\,2 43015  97.7224 336.8045 0255067  44.3156 317.8167 14.79435603123105,97.7224,0.0255067,14.79435603,336.8045,44.3156,317.8167
43015,MIRATA,LEO,20060.72454797,1 43015U 17073C   20060.72454797 +.00001385 +00000-0 +11167-3 0 0001\,2 43015 097.7223 337.0648 0255055 043.4360 318.6639 14.7943660612314,97.7223,0.0255055,14.79436606,337.0648,43.436,318.6639
